IRIDIUM 116             
1 43072U 17083C   25173.34897315 -.00000093  00000+0 -40382-4 0  9997
2 43072  86.3970 112.4531 0002046  77.4610 282.6815 14.34218949392590
IRIDIUM 130             
1 43073U 17083D   25173.24748995  .00000169  00000+0  53342-4 0  9998
2 43073  86.3977 112.7355 0002355  74.6260 285.5196 14.34218650392524
IRIDIUM 151             
1 43074U 17083E   25173.57096239  .00000050  00000+0  10786-4 0  9996
2 43074  86.3971 112.4099 0002102  79.1997 280.9436 14.34217766392598
IRIDIUM 134             
1 43075U 17083F   25173.74855561 -.00000015  00000+0 -12563-4 0  9995
2 43075  86.3972 112.3389 0002267  76.6317 283.5131 14.34217361392582
IRIDIUM 137             
1 43076U 17083G   25173.76123917  .00000015  00000+0 -15896-5 0  9993
2 43076  86.3974 112.4190 0001603  78.7042 281.4334 14.34217735392652
IRIDIUM 141             
1 43077U 17083H   25173.75489791  .00000084  00000+0  22969-4 0  9991
2 43077  86.3967 112.2726 0002427  88.6864 271.4610 14.34217501392652
IRIDIUM 153             
1 43078U 17083J   25173.77685185  .00000195  00000+0  62425-4 0  9993
2 43078  86.3961  80.7308 0002640  88.5475 271.6024 14.34220482393762
IRIDIUM 131             
1 43079U 17083K   25173.81198129  .00000004  00000+0 -55189-5 0  9996
2 43079  86.3975 112.4109 0002241  88.4925 271.6528 14.34217662392591
